     3.00           N                   E                   RINEX VERSION / TYPE
BRD_USR             ESA                 20190107 051757  UTCPGM / RUN BY / DATE
 GAL   5.1250E+01  3.1250E-02 -4.3335E-03  0.0000E+00       IONOSPHERIC CORR
GAUT  0.0000000000E+00 0.000000000E+00  86400 2035 GSTB   0 TIME SYSTEM CORR
GPGA -2.1245796233E-09 4.440892099E-15  86400 2035 GSTB   0 TIME SYSTEM CORR
                                                            END OF HEADER
E33 2019 01 07 03 10 00 8.478738018312E-04 8.526512829121E-14 0.000000000000E+00
     3.500000000000E+01-1.420000000000E+02 2.928693420408E-09 2.340124062989E+00
    -6.513670086861E-06 3.558164462447E-04 9.685754776001E-07 5.440602737427E+03
     9.780000000000E+04 6.519258022308E-08-8.664835154193E-01-7.078051567078E-08
     9.851785060792E-01 3.275625000000E+02-1.502825093234E+00-5.785955293977E-09
    -3.425142670940E-10 5.210000000000E+02 2.035000000000E+03 0.000000000000E+00
     3.120000000000E+00 4.550000000000E+02-8.149072527885E-09-9.080395102501E-09
     9.869500000000E+04 0.000000000000E+00 0.000000000000E+00 0.000000000000E+00
E11 2019 01 07 03 10 00 5.719202279579E-03 9.521272659185E-13 0.000000000000E+00
     3.500000000000E+01-1.541875000000E+02 2.984410026942E-09-3.758122730611E-01
    -7.202848792076E-06 2.438273513690E-04 1.514330506325E-06 5.440603006363E+03
     9.780000000000E+04-6.146728992462E-08-8.611491836001E-01-5.587935447693E-09
     9.819421948167E-01 3.185937500000E+02-3.612685852010E-01-5.758096990709E-09
    -3.507288949806E-10 2.580000000000E+02 2.035000000000E+03 0.000000000000E+00
     3.120000000000E+00 0.000000000000E+00-1.816079020500E-08 0.000000000000E+00
     9.870000000000E+04 0.000000000000E+00 0.000000000000E+00 0.000000000000E+00
E13 2019 01 07 03 10 00 3.814230440184E-04 4.689582056017E-13 0.000000000000E+00
     3.500000000000E+01-1.382812500000E+02 2.946551307118E-09-2.271961264695E+00
    -6.500631570816E-06 3.353613428771E-04 3.129243850708E-07 5.440598876953E+03
     9.780000000000E+04 2.793967723846E-08-8.664473330664E-01 4.284083843231E-08
     9.851829987006E-01 3.446562500000E+02-1.600317007147E+00-5.751668151494E-09
    -3.264421690552E-10 2.580000000000E+02 2.035000000000E+03 0.000000000000E+00
     3.120000000000E+00 5.600000000000E+01-4.656612873077E-09 0.000000000000E+00
     9.870000000000E+04 0.000000000000E+00 0.000000000000E+00 0.000000000000E+00
E33 2019 01 07 03 10 00 8.478743839078E-04 7.105427357601E-14 0.000000000000E+00
     3.500000000000E+01-1.420000000000E+02 2.928693420408E-09 2.340124062989E+00
    -6.513670086861E-06 3.558164462447E-04 9.685754776001E-07 5.440602737427E+03
     9.780000000000E+04 6.519258022308E-08-8.664835154193E-01-7.078051567078E-08
     9.851785060792E-01 3.275625000000E+02-1.502825093234E+00-5.785955293977E-09
    -3.425142670940E-10 2.580000000000E+02 2.035000000000E+03 0.000000000000E+00
     3.120000000000E+00 5.600000000000E+01-8.149072527885E-09 0.000000000000E+00
     9.870000000000E+04 0.000000000000E+00 0.000000000000E+00 0.000000000000E+00
E14 2019 01 07 03 10 00 6.463631754741E-03-5.584865903074E-12 0.000000000000E+00
     3.500000000000E+01 2.137500000000E+01 3.532647148933E-09 6.457121971677E-01
    -1.035630702972E-06 1.663854646031E-01 2.076849341393E-06 5.289340137482E+03
     9.780000000000E+04 2.609565854073E-06-1.461936263742E+00-6.457790732384E-06
     8.825570410833E-01 2.921875000000E+02 1.453804045505E+00-4.473043463072E-09
     1.365414017832E-09 5.210000000000E+02 2.035000000000E+03 0.000000000000E+00
     3.120000000000E+00 4.550000000000E+02 3.329478204250E-08 3.748573362827E-08
     9.872500000000E+04 0.000000000000E+00 0.000000000000E+00 0.000000000000E+00
E30 2019 01 07 03 10 00 5.208711256273E-03-3.052491592825E-11 0.000000000000E+00
     3.500000000000E+01 1.280312500000E+02 2.448316267914E-09-1.494786596845E+00
     5.936250090599E-06 2.960519632325E-04 1.286529004574E-05 5.440621850967E+03
     9.780000000000E+04 1.490116119385E-08-2.943331728346E+00 1.080334186554E-07
     9.878893649631E-01 7.421875000000E+01 4.980055119285E-01-5.148071580702E-09
    -2.746542975968E-10 2.580000000000E+02 2.035000000000E+03 0.000000000000E+00
     3.120000000000E+00 0.000000000000E+00-3.026798367500E-09 0.000000000000E+00
     9.875000000000E+04 0.000000000000E+00 0.000000000000E+00 0.000000000000E+00
E36 2019 01 07 03 10 00 7.626188453287E-04-4.490630090004E-12 0.000000000000E+00
     3.500000000000E+01-1.611562500000E+02 2.974052452651E-09 1.079031610226E-01
    -7.400289177895E-06 3.276476636529E-04 1.220032572746E-06 5.440602252960E+03
     9.780000000000E+04-7.450580596924E-09-8.664575925109E-01 7.264316082001E-08
     9.851866530700E-01 3.267500000000E+02-1.625067022404E+00-5.828457064346E-09
    -3.575148919303E-10 2.580000000000E+02 2.035000000000E+03 0.000000000000E+00
     3.120000000000E+00 5.600000000000E+01 1.164153218269E-09 0.000000000000E+00
     9.880000000000E+04 0.000000000000E+00 0.000000000000E+00 0.000000000000E+00
E36 2019 01 07 03 10 00 7.626195438206E-04-4.490630090004E-12 0.000000000000E+00
     3.500000000000E+01-1.611562500000E+02 2.974052452651E-09 1.079031610226E-01
    -7.400289177895E-06 3.276476636529E-04 1.220032572746E-06 5.440602252960E+03
     9.780000000000E+04-7.450580596924E-09-8.664575925109E-01 7.264316082001E-08
     9.851866530700E-01 3.267500000000E+02-1.625067022404E+00-5.828457064346E-09
    -3.575148919303E-10 5.210000000000E+02 2.035000000000E+03 0.000000000000E+00
     3.120000000000E+00 4.550000000000E+02 1.164153218269E-09 1.396983861923E-09
     9.881500000000E+04 0.000000000000E+00 0.000000000000E+00 0.000000000000E+00
E24 2019 01 07 03 10 00 6.299038068391E-03-1.969624463527E-11 0.000000000000E+00
     3.500000000000E+01 1.360937500000E+02 2.419386491444E-09 9.144900236087E-01
     6.187707185745E-06 4.621304105967E-04 1.142174005508E-05 5.440621900558E+03
     9.780000000000E+04 2.980232238770E-08-2.943276899640E+00 9.313225746155E-09
     9.879048689689E-01 1.078125000000E+02 4.424395033012E-01-5.059853620356E-09
    -1.778645516296E-10 5.210000000000E+02 2.035000000000E+03 0.000000000000E+00
     3.120000000000E+00 0.000000000000E+00 4.284083843231E-08 4.796311259270E-08
     9.884500000000E+04 0.000000000000E+00 0.000000000000E+00 0.000000000000E+00
E09 2019 01 07 03 10 00 6.565754185431E-03-1.135447291745E-11 0.000000000000E+00
     3.500000000000E+01 3.721875000000E+01 3.431214352422E-09-2.953507221819E+00
     1.765787601471E-06 2.460923278704E-04 6.057322025299E-06 5.440606494904E+03
     9.780000000000E+04 1.862645149231E-08 1.235389049404E+00 5.774199962616E-08
     9.582499395506E-01 2.102812500000E+02 1.210767383264E-01-5.632377468272E-09
     5.796670026002E-10 2.580000000000E+02 2.035000000000E+03 0.000000000000E+00
     3.120000000000E+00 0.000000000000E+00-3.259629011154E-09 0.000000000000E+00
     9.885000000000E+04 0.000000000000E+00 0.000000000000E+00 0.000000000000E+00
E24 2019 01 07 03 10 00 6.299032364041E-03-1.969624463527E-11 0.000000000000E+00
     3.500000000000E+01 1.360937500000E+02 2.419386491444E-09 9.144900236087E-01
     6.187707185745E-06 4.621304105967E-04 1.142174005508E-05 5.440621900558E+03
     9.780000000000E+04 2.980232238770E-08-2.943276899640E+00 9.313225746155E-09
     9.879048689689E-01 1.078125000000E+02 4.424395033012E-01-5.059853620356E-09
    -1.778645516296E-10 2.580000000000E+02 2.035000000000E+03 0.000000000000E+00
     3.120000000000E+00 0.000000000000E+00 4.284083843231E-08 0.000000000000E+00
     9.885000000000E+04 0.000000000000E+00 0.000000000000E+00 0.000000000000E+00
E09 2019 01 07 03 10 00 6.565754243638E-03-1.134026206273E-11 0.000000000000E+00
     3.500000000000E+01 3.721875000000E+01 3.431214352422E-09-2.953507221819E+00
     1.765787601471E-06 2.460923278704E-04 6.057322025299E-06 5.440606494904E+03
     9.780000000000E+04 1.862645149231E-08 1.235389049404E+00 5.774199962616E-08
     9.582499395506E-01 2.102812500000E+02 1.210767383264E-01-5.632377468272E-09
     5.796670026002E-10 5.210000000000E+02 2.035000000000E+03 0.000000000000E+00
     3.120000000000E+00 0.000000000000E+00-3.259629011154E-09-3.958120942116E-09
     9.887500000000E+04 0.000000000000E+00 0.000000000000E+00 0.000000000000E+00
E31 2019 01 07 03 10 00 9.390655905008E-04-9.649170351622E-12 0.000000000000E+00
     3.500000000000E+01 1.173437500000E+02 2.271880347221E-09-2.577256301550E+00
     5.522742867470E-06 2.560848370194E-04 1.163221895695E-05 5.440637294769E+03
     9.780000000000E+04-2.235174179077E-08-2.949386357140E+00-1.117587089539E-07
     9.898771180695E-01 1.045937500000E+02-1.541130918494E+00-4.952706300097E-09
    -1.232194182976E-10 5.210000000000E+02 2.035000000000E+03 0.000000000000E+00
     3.120000000000E+00 0.000000000000E+00 0.000000000000E+00-2.328306436539E-10
     9.893500000000E+04 0.000000000000E+00 0.000000000000E+00 0.000000000000E+00
E25 2019 01 07 03 10 00 1.931359933224E-03-1.138289462688E-11 0.000000000000E+00
     3.500000000000E+01 1.424062500000E+02 2.359026834365E-09 1.967931353543E+00
     6.511807441711E-06 2.174174878746E-04 1.221708953381E-05 5.440636741638E+03
     9.780000000000E+04 1.303851604462E-08-2.949362191197E+00-2.980232238770E-08
     9.899069893938E-01 9.512500000000E+01-1.373842796810E+00-5.031995317089E-09
    -2.128660095809E-10 2.580000000000E+02 2.035000000000E+03 0.000000000000E+00
     3.120000000000E+00 0.000000000000E+00-1.164153218269E-09 0.000000000000E+00
     9.895000000000E+04 0.000000000000E+00 0.000000000000E+00 0.000000000000E+00
